[Satellite]
VERSION=1.1
NAME=OPTUS D3
NICKNAME=OPTUS D3
TLE1=1 35756U 09044B   17185.61186775 -.00000153  00000-0  00000-0 0  9996
TLE2=2 35756   0.0282  34.7655 0003440  48.0795 216.2333  1.00271743 28784
